{
  "type": "FeatureCollection",
  "features": [
    {
      "type": "Feature",
      "properties": {
        "norad_id": 66479,
        "name": "STARLINK-35581",
        "group": "last-30-days",
        "lat": -42.71429547437857,
        "lon": 42.45811565749723,
        "alt_km": 391.80841752511606,
        "timestamp": "2025-12-03T13:52:08.345662+00:00",
        "meta_object_name": "STARLINK-35581",
        "meta_object_id": "2025-262Z",
        "meta_epoch": "2025-12-03T08:00:01.999872",
        "meta_mean_motion": 15.60450214,
        "meta_eccentricity": 0.00016794,
        "meta_inclination": 42.9991,
        "meta_ra_of_asc_node": 126.1283,
        "meta_arg_of_pericenter": 271.2415,
        "meta_mean_anomaly": 69.7051,
        "meta_ephemeris_type": 0,
        "meta_classification_type": "U",
        "meta_norad_cat_id": 66479,
        "meta_element_set_no": 999,
        "meta_rev_at_epoch": 412,
        "meta_bstar": -0.027833264,
        "meta_mean_motion_dot": -0.02057148,
        "meta_mean_motion_ddot": 0,
        "tle_line1": "1 66479U 25262Z   25337.33335648 -.02057148  00000+0 -27833-1 0  9996",
        "tle_line2": "2 66479  42.9991 126.1283 0001679 271.2415  69.7051 15.60450214  4129"
      },
      "geometry": {
        "type": "Point",
        "coordinates": [
          42.45811565749723,
          -42.71429547437857
        ]
      }
    },
    {
      "type": "Feature",
      "properties": {
        "norad_id": 66480,
        "name": "STARLINK-35670",
        "group": "last-30-days",
        "lat": -41.92385909273396,
        "lon": 50.14457837038722,
        "alt_km": 391.83456197891337,
        "timestamp": "2025-12-03T13:52:08.345672+00:00",
        "meta_object_name": "STARLINK-35670",
        "meta_object_id": "2025-262AA",
        "meta_epoch": "2025-12-03T08:00:01.999872",
        "meta_mean_motion": 15.60448842,
        "meta_eccentricity": 0.00016311,
        "meta_inclination": 42.999,
        "meta_ra_of_asc_node": 126.1136,
        "meta_arg_of_pericenter": 269.0837,
        "meta_mean_anomaly": 77.6172,
        "meta_ephemeris_type": 0,
        "meta_classification_type": "U",
        "meta_norad_cat_id": 66480,
        "meta_element_set_no": 999,
        "meta_rev_at_epoch": 412,
        "meta_bstar": -0.027838697,
        "meta_mean_motion_dot": -0.02057364,
        "meta_mean_motion_ddot": 0,
        "tle_line1": "1 66480U 25262AA  25337.33335648 -.02057364  00000+0 -27839-1 0  9994",
        "tle_line2": "2 66480  42.9990 126.1136 0001631 269.0837  77.6172 15.60448842  4124"
      },
      "geometry": {
        "type": "Point",
        "coordinates": [
          50.14457837038722,
          -41.92385909273396
        ]
      }
    },
    {
      "type": "Feature",
      "properties": {
        "norad_id": 66481,
        "name": "STARLINK-35698",
        "group": "last-30-days",
        "lat": -41.548642997774515,
        "lon": 52.65137236709114,
        "alt_km": 391.78077388983183,
        "timestamp": "2025-12-03T13:52:08.345684+00:00",
        "meta_object_name": "STARLINK-35698",
        "meta_object_id": "2025-262AB",
        "meta_epoch": "2025-12-03T08:00:01.999872",
        "meta_mean_motion": 15.60449282,
        "meta_eccentricity": 0.00016723,
        "meta_inclination": 42.9991,
        "meta_ra_of_asc_node": 126.1085,
        "meta_arg_of_pericenter": 272.7885,
        "meta_mean_anomaly": 75.827,
        "meta_ephemeris_type": 0,
        "meta_classification_type": "U",
        "meta_norad_cat_id": 66481,
        "meta_element_set_no": 999,
        "meta_rev_at_epoch": 412,
        "meta_bstar": -0.027823945,
        "meta_mean_motion_dot": -0.02056477,
        "meta_mean_motion_ddot": 0,
        "tle_line1": "1 66481U 25262AB  25337.33335648 -.02056477  00000+0 -27824-1 0  9993",
        "tle_line2": "2 66481  42.9991 126.1085 0001672 272.7885  75.8270 15.60449282  4126"
      },
      "geometry": {
        "type": "Point",
        "coordinates": [
          52.65137236709114,
          -41.548642997774515
        ]
      }
    },
    {
      "type": "Feature",
      "properties": {
        "norad_id": 66482,
        "name": "STARLINK-35648",
        "group": "last-30-days",
        "lat": -41.11802569429377,
        "lon": 55.13561408362321,
        "alt_km": 391.87677303022883,
        "timestamp": "2025-12-03T13:52:08.345694+00:00",
        "meta_object_name": "STARLINK-35648",
        "meta_object_id": "2025-262AC",
        "meta_epoch": "2025-12-03T08:00:01.999872",
        "meta_mean_motion": 15.60449976,
        "meta_eccentricity": 0.00015451,
        "meta_inclination": 42.9993,
        "meta_ra_of_asc_node": 126.1038,
        "meta_arg_of_pericenter": 268.589,
        "meta_mean_anomaly": 81.9449,
        "meta_ephemeris_type": 0,
        "meta_classification_type": "U",
        "meta_norad_cat_id": 66482,
        "meta_element_set_no": 999,
        "meta_rev_at_epoch": 397,
        "meta_bstar": -0.02783778,
        "meta_mean_motion_dot": -0.02057315,
        "meta_mean_motion_ddot": 0,
        "tle_line1": "1 66482U 25262AC  25337.33335648 -.02057315  00000+0 -27838-1 0  9991",
        "tle_line2": "2 66482  42.9993 126.1038 0001545 268.5890  81.9449 15.60449976  3973"
      },
      "geometry": {
        "type": "Point",
        "coordinates": [
          55.13561408362321,
          -41.11802569429377
        ]
      }
    },
    {
      "type": "Feature",
      "properties": {
        "norad_id": 66483,
        "name": "STARLINK-35654",
        "group": "last-30-days",
        "lat": -40.63536842811787,
        "lon": 57.57946419856974,
        "alt_km": 391.742299536053,
        "timestamp": "2025-12-03T13:52:08.345704+00:00",
        "meta_object_name": "STARLINK-35654",
        "meta_object_id": "2025-262AD",
        "meta_epoch": "2025-12-03T08:00:01.999872",
        "meta_mean_motion": 15.60449927,
        "meta_eccentricity": 0.00017335,
        "meta_inclination": 42.9993,
        "meta_ra_of_asc_node": 126.0979,
        "meta_arg_of_pericenter": 268.7057,
        "meta_mean_anomaly": 83.7439,
        "meta_ephemeris_type": 0,
        "meta_classification_type": "U",
        "meta_norad_cat_id": 66483,
        "meta_element_set_no": 999,
        "meta_rev_at_epoch": 412,
        "meta_bstar": -0.027830123,
        "meta_mean_motion_dot": -0.02056969,
        "meta_mean_motion_ddot": 0,
        "tle_line1": "1 66483U 25262AD  25337.33335648 -.02056969  00000+0 -27830-1 0  9998",
        "tle_line2": "2 66483  42.9993 126.0979 0001733 268.7057  83.7439 15.60449927  4126"
      },
      "geometry": {
        "type": "Point",
        "coordinates": [
          57.57946419856974,
          -40.63536842811787
        ]
      }
    },
    {
      "type": "Feature",
      "properties": {
        "norad_id": 66484,
        "name": "STARLINK-35371",
        "group": "last-30-days",
        "lat": -40.10180394046505,
        "lon": 59.98919545182693,
        "alt_km": 391.7742539708761,
        "timestamp": "2025-12-03T13:52:08.345714+00:00",
        "meta_object_name": "STARLINK-35371",
        "meta_object_id": "2025-262AE",
        "meta_epoch": "2025-12-03T08:00:01.999872",
        "meta_mean_motion": 15.60448375,
        "meta_eccentricity": 0.00016581,
        "meta_inclination": 42.9995,
        "meta_ra_of_asc_node": 126.0944,
        "meta_arg_of_pericenter": 269.8557,
        "meta_mean_anomaly": 84.5121,
        "meta_ephemeris_type": 0,
        "meta_classification_type": "U",
        "meta_norad_cat_id": 66484,
        "meta_element_set_no": 999,
        "meta_rev_at_epoch": 412,
        "meta_bstar": -0.027802726,
        "meta_mean_motion_dot": -0.02055035,
        "meta_mean_motion_ddot": 0,
        "tle_line1": "1 66484U 25262AE  25337.33335648 -.02055035  00000+0 -27803-1 0  9992",
        "tle_line2": "2 66484  42.9995 126.0944 0001658 269.8557  84.5121 15.60448375  4127"
      },
      "geometry": {
        "type": "Point",
        "coordinates": [
          59.98919545182693,
          -40.10180394046505
        ]
      }
    },
    {
      "type": "Feature",
      "properties": {
        "norad_id": 66485,
        "name": "STARLINK-34774",
        "group": "last-30-days",
        "lat": 16.62666534563942,
        "lon": -162.13126013511862,
        "alt_km": 353.8601855756897,
        "timestamp": "2025-12-03T13:52:08.345725+00:00",
        "meta_object_name": "STARLINK-34774",
        "meta_object_id": "2025-263A",
        "meta_epoch": "2025-12-03T08:00:01.999872",
        "meta_mean_motion": 15.7209784,
        "meta_eccentricity": 0.00017249,
        "meta_inclination": 42.9992,
        "meta_ra_of_asc_node": 180.6534,
        "meta_arg_of_pericenter": 275.1863,
        "meta_mean_anomaly": 164.6122,
        "meta_ephemeris_type": 0,
        "meta_classification_type": "U",
        "meta_norad_cat_id": 66485,
        "meta_element_set_no": 999,
        "meta_rev_at_epoch": 412,
        "meta_bstar": -0.016640591,
        "meta_mean_motion_dot": -0.01988954,
        "meta_mean_motion_ddot": 0,
        "tle_line1": "1 66485U 25263A   25337.33335648 -.01988954  00000+0 -16641-1 0  9996",
        "tle_line2": "2 66485  42.9992 180.6534 0001724 275.1863 164.6122 15.72097840  4121"
      },
      "geometry": {
        "type": "Point",
        "coordinates": [
          -162.13126013511862,
          16.62666534563942
        ]
      }
    }
  ]
}